{
  "norad_id": 36605,
  "name": "TANDEM-X",
  "history": [
    {
      "epoch": "2026-03-27T12:21:40.897152",
      "apogee_km": 509.5594499611534,
      "perigee_km": 507.2441956089324,
      "latitude_deg": -41.12419074646269,
      "longitude_deg": -46.05455871997401,
      "semi_major_axis_km": 6886.538822785043,
      "eccentricity": 0.0001681,
      "inclination_deg": 97.4466,
      "raan_deg": 95.3837,
      "arg_perigee_deg": 88.6365,
      "mean_anomaly_deg": 271.5062,
      "mean_motion_rev_day": 15.19152112
    }
  ]
}